{
  "type": "FeatureCollection",
  "features": [
    {
      "type": "Feature",
      "properties": {},
      "geometry": {
        "type": "LineString",
        "coordinates": [
          [
            120.6044175,
            31.3183548,
            21.0
          ],
          [
            120.6043435,
            31.3184277,
            20.0
          ],
          [
            120.6043244,
            31.3185362,
            19.0
          ],
          [
            120.604297,
            31.3186455,
            18.0
          ],
          [
            120.6042492,
            31.3187393,
            19.0
          ],
          [
            120.6042389,
            31.3188481,
            20.0
          ],
          [
            120.6042333,
            31.3189545,
            22.0
          ],
          [
            120.6042757,
            31.3189971,
            21.0
          ],
          [
            120.6042085,
            31.3189902,
            21.0
          ],
          [
            120.6041097,
            31.3190252,
            19.0
          ],
          [
            120.604082,
            31.3191245,
            18.0
          ],
          [
            120.6040833,
            31.3192323,
            19.0
          ],
          [
            120.6040863,
            31.3193433,
            20.0
          ],
          [
            120.6040747,
            31.3194439,
            23.0
          ],
          [
            120.6040334,
            31.3195312,
            25.0
          ],
          [
            120.6039934,
            31.3196336,
            26.0
          ],
          [
            120.60395,
            31.3197303,
            26.0
          ],
          [
            120.6039283,
            31.3198258,
            25.0
          ],
          [
            120.6039159,
            31.319913,
            24.0
          ],
          [
            120.6039232,
            31.3200112,
            22.0
          ],
          [
            120.6039196,
            31.3201081,
            21.0
          ],
          [
            120.6039612,
            31.3201948,
            22.0
          ],
          [
            120.604058,
            31.3202241,
            20.0
          ],
          [
            120.6041123,
            31.3202181,
            17.0
          ],
          [
            120.6040462,
            31.3202254,
            16.0
          ],
          [
            120.6039443,
            31.3201939,
            14.0
          ],
          [
            120.6038109,
            31.3201625,
            13.0
          ],
          [
            120.6036875,
            31.3201373,
            14.0
          ],
          [
            120.6035799,
            31.3201691,
            14.0
          ],
          [
            120.6035111,
            31.3202755,
            19.0
          ],
          [
            120.6035006,
            31.3203984,
            15.0
          ],
          [
            120.6035369,
            31.3205242,
            15.0
          ],
          [
            120.603562,
            31.3206295,
            16.0
          ],
          [
            120.6035772,
            31.3206521,
            15.0
          ],
          [
            120.6035521,
            31.3207111,
            15.0
          ],
          [
            120.6035582,
            31.3206526,
            14.0
          ],
          [
            120.6035595,
            31.3205534,
            14.0
          ],
          [
            120.6035953,
            31.3204394,
            14.0
          ],
          [
            120.6035978,
            31.3203256,
            14.0
          ],
          [
            120.6035681,
            31.3202294,
            16.0
          ]
        ]
      }
    }
  ]
}