{
  "type": "FeatureCollection",
  "features": [
    {
      "type": "Feature",
      "properties": {},
      "geometry": {
        "type": "LineString",
        "coordinates": [
          [
            120.6035681,
            31.3202294,
            16.0
          ],
          [
            120.603464,
            31.3201963,
            16.0
          ],
          [
            120.6033499,
            31.3201748,
            16.0
          ],
          [
            120.6032273,
            31.3201775,
            15.0
          ],
          [
            120.6031666,
            31.3202636,
            14.0
          ],
          [
            120.6031459,
            31.3203751,
            14.0
          ],
          [
            120.6031403,
            31.3204887,
            16.0
          ],
          [
            120.6031177,
            31.3204573,
            17.0
          ],
          [
            120.6031039,
            31.3204136,
            18.0
          ],
          [
            120.6031496,
            31.3203175,
            19.0
          ],
          [
            120.603189,
            31.3202032,
            18.0
          ],
          [
            120.6031209,
            31.3201657,
            17.0
          ],
          [
            120.603025,
            31.3201515,
            15.0
          ],
          [
            120.6029742,
            31.3200666,
            14.0
          ],
          [
            120.6030493,
            31.3200177,
            14.0
          ],
          [
            120.6031634,
            31.3200241,
            16.0
          ],
          [
            120.6032908,
            31.3200466,
            17.0
          ],
          [
            120.6034163,
            31.320077,
            16.0
          ],
          [
            120.6035317,
            31.3201111,
            15.0
          ],
          [
            120.603591,
            31.3200551,
            15.0
          ],
          [
            120.6036298,
            31.3199584,
            18.0
          ],
          [
            120.6036455,
            31.3198826,
            20.0
          ],
          [
            120.6037045,
            31.3199043,
            20.0
          ],
          [
            120.6038129,
            31.3199244,
            19.0
          ],
          [
            120.6039324,
            31.3199498,
            17.0
          ],
          [
            120.6039673,
            31.3199604,
            16.0
          ],
          [
            120.6038878,
            31.3199556,
            15.0
          ],
          [
            120.6037613,
            31.3199613,
            14.0
          ],
          [
            120.6036421,
            31.3199291,
            14.0
          ],
          [
            120.6035332,
            31.3198664,
            14.0
          ],
          [
            120.6034243,
            31.3198485,
            16.0
          ],
          [
            120.6033026,
            31.3198362,
            16.0
          ],
          [
            120.6031802,
            31.31981,
            16.0
          ],
          [
            120.6030653,
            31.3197974,
            16.0
          ],
          [
            120.6030225,
            31.3198699,
            15.0
          ],
          [
            120.6030096,
            31.3199663,
            14.0
          ],
          [
            120.6030189,
            31.3199251,
            14.0
          ],
          [
            120.6030521,
            31.3198355,
            15.0
          ],
          [
            120.6031487,
            31.3198084,
            18.0
          ],
          [
            120.6032754,
            31.319816,
            17.0
          ],
          [
            120.6034111,
            31.3198304,
            15.0
          ],
          [
            120.603551,
            31.3198439,
            14.0
          ]
        ]
      }
    }
  ]
}