{
  "type": "FeatureCollection",
  "features": [
    {
      "type": "Feature",
      "properties": {},
      "geometry": {
        "type": "LineString",
        "coordinates": [
          [
            120.6030905,
            31.3191807,
            12.0
          ],
          [
            120.6030598,
            31.3192747,
            15.0
          ],
          [
            120.6030406,
            31.3193832,
            17.0
          ],
          [
            120.6030338,
            31.3194909,
            18.0
          ],
          [
            120.6030307,
            31.3196074,
            18.0
          ],
          [
            120.6030357,
            31.3197259,
            19.0
          ],
          [
            120.6030518,
            31.319824,
            19.0
          ],
          [
            120.6030378,
            31.3199239,
            17.0
          ],
          [
            120.6030134,
            31.3200253,
            17.0
          ],
          [
            120.6029829,
            31.3201311,
            17.0
          ],
          [
            120.6029985,
            31.3201798,
            17.0
          ],
          [
            120.6030085,
            31.3201122,
            17.0
          ],
          [
            120.6030413,
            31.3200007,
            19.0
          ],
          [
            120.6030777,
            31.3198878,
            22.0
          ],
          [
            120.6030893,
            31.3197693,
            24.0
          ],
          [
            120.603075,
            31.319657,
            24.0
          ],
          [
            120.6030695,
            31.3195469,
            23.0
          ],
          [
            120.6030703,
            31.3194403,
            22.0
          ],
          [
            120.6030764,
            31.3193353,
            23.0
          ],
          [
            120.603087,
            31.3192238,
            23.0
          ],
          [
            120.6031195,
            31.3191214,
            21.0
          ],
          [
            120.6031489,
            31.3190131,
            22.0
          ],
          [
            120.6031564,
            31.3189126,
            23.0
          ],
          [
            120.6031793,
            31.3188061,
            24.0
          ],
          [
            120.6031994,
            31.3187085,
            25.0
          ],
          [
            120.6031956,
            31.3186173,
            25.0
          ],
          [
            120.6032057,
            31.3185226,
            23.0
          ],
          [
            120.6031975,
            31.3184268,
            22.0
          ],
          [
            120.6032038,
            31.318314,
            23.0
          ],
          [
            120.6032035,
            31.3182099,
            23.0
          ],
          [
            120.6031928,
            31.3181089,
            21.0
          ],
          [
            120.6032234,
            31.3180377,
            22.0
          ]
        ]
      }
    }
  ]
}