{
  "type": "FeatureCollection",
  "features": [
    {
      "type": "Feature",
      "properties": {},
      "geometry": {
        "type": "LineString",
        "coordinates": [
          [
            120.601419,
            31.3205216,
            18.0
          ],
          [
            120.6014886,
            31.3205755,
            18.0
          ],
          [
            120.6016004,
            31.3205918,
            18.0
          ],
          [
            120.6017291,
            31.3205844,
            17.0
          ],
          [
            120.6018557,
            31.3205766,
            17.0
          ],
          [
            120.6019821,
            31.3205729,
            17.0
          ],
          [
            120.6021058,
            31.3205953,
            18.0
          ],
          [
            120.6022298,
            31.3205907,
            19.0
          ],
          [
            120.6023448,
            31.3205847,
            17.0
          ],
          [
            120.6024516,
            31.3205957,
            16.0
          ],
          [
            120.6025621,
            31.3206076,
            16.0
          ],
          [
            120.6026732,
            31.3206336,
            16.0
          ],
          [
            120.6027927,
            31.3206553,
            16.0
          ],
          [
            120.6029024,
            31.3206868,
            15.0
          ],
          [
            120.6030159,
            31.3207109,
            14.0
          ],
          [
            120.6031259,
            31.3207256,
            14.0
          ],
          [
            120.6032447,
            31.3207453,
            14.0
          ],
          [
            120.6033642,
            31.3207509,
            14.0
          ],
          [
            120.6034608,
            31.3207884,
            14.0
          ],
          [
            120.6034987,
            31.3208279,
            15.0
          ],
          [
            120.6035033,
            31.3209152,
            16.0
          ],
          [
            120.6035863,
            31.320968,
            17.0
          ],
          [
            120.603704,
            31.3209866,
            16.0
          ],
          [
            120.6038298,
            31.3209804,
            14.0
          ],
          [
            120.603951,
            31.3209608,
            12.0
          ],
          [
            120.6040692,
            31.3209433,
            12.0
          ],
          [
            120.6041952,
            31.3209328,
            11.0
          ],
          [
            120.6043176,
            31.3209315,
            11.0
          ],
          [
            120.6044471,
            31.3209361,
            10.0
          ],
          [
            120.604573,
            31.3209589,
            11.0
          ],
          [
            120.6046915,
            31.3209802,
            12.0
          ],
          [
            120.6048001,
            31.3209834,
            12.0
          ],
          [
            120.6049043,
            31.3209757,
            13.0
          ],
          [
            120.6050155,
            31.320989,
            13.0
          ],
          [
            120.6051432,
            31.3209971,
            12.0
          ],
          [
            120.6052688,
            31.3210069,
            12.0
          ],
          [
            120.605388,
            31.3210204,
            12.0
          ],
          [
            120.605502,
            31.3210248,
            11.0
          ],
          [
            120.6056231,
            31.3210427,
            11.0
          ],
          [
            120.6057378,
            31.3210456,
            11.0
          ]
        ]
      }
    }
  ]
}