{
  "type": "FeatureCollection",
  "features": [
    {
      "type": "Feature",
      "properties": {},
      "geometry": {
        "type": "LineString",
        "coordinates": [
          [
            120.6009502,
            31.3171519,
            17.0
          ],
          [
            120.6008706,
            31.317227,
            17.0
          ],
          [
            120.6008233,
            31.3173131,
            17.0
          ],
          [
            120.6008009,
            31.3174029,
            17.0
          ],
          [
            120.600782,
            31.3174951,
            17.0
          ],
          [
            120.6007686,
            31.3175974,
            18.0
          ],
          [
            120.6007853,
            31.3177045,
            20.0
          ],
          [
            120.6008255,
            31.3178068,
            22.0
          ],
          [
            120.6008717,
            31.3178975,
            22.0
          ],
          [
            120.6009152,
            31.3179901,
            23.0
          ],
          [
            120.6009671,
            31.3180752,
            23.0
          ],
          [
            120.6010181,
            31.3181637,
            23.0
          ],
          [
            120.6010596,
            31.3182595,
            23.0
          ],
          [
            120.6010944,
            31.3183485,
            21.0
          ],
          [
            120.6011349,
            31.3184396,
            19.0
          ],
          [
            120.6011601,
            31.318543,
            18.0
          ],
          [
            120.601169,
            31.3186502,
            18.0
          ],
          [
            120.6011572,
            31.3187556,
            17.0
          ],
          [
            120.6011435,
            31.3188651,
            18.0
          ],
          [
            120.6011318,
            31.3189725,
            18.0
          ],
          [
            120.6011118,
            31.3190774,
            17.0
          ],
          [
            120.6010738,
            31.3191762,
            16.0
          ],
          [
            120.6010364,
            31.319283,
            16.0
          ],
          [
            120.6010047,
            31.3193903,
            15.0
          ],
          [
            120.6009634,
            31.3194862,
            16.0
          ],
          [
            120.6009192,
            31.319574,
            16.0
          ],
          [
            120.6010054,
            31.3196027,
            15.0
          ],
          [
            120.6011264,
            31.3196289,
            15.0
          ],
          [
            120.6011836,
            31.3197109,
            15.0
          ],
          [
            120.6011867,
            31.3198199,
            14.0
          ],
          [
            120.601168,
            31.319935,
            13.0
          ],
          [
            120.601134,
            31.3200475,
            15.0
          ],
          [
            120.6011144,
            31.3201604,
            14.0
          ],
          [
            120.6010832,
            31.3202681,
            15.0
          ],
          [
            120.6010437,
            31.3203698,
            15.0
          ],
          [
            120.6010128,
            31.3204686,
            14.0
          ],
          [
            120.6009406,
            31.3205491,
            13.0
          ],
          [
            120.6009509,
            31.320641,
            13.0
          ],
          [
            120.6009575,
            31.3207469,
            13.0
          ],
          [
            120.6009612,
            31.3208432,
            14.0
          ],
          [
            120.6009761,
            31.3209348,
            15.0
          ],
          [
            120.6009542,
            31.3210315,
            19.0
          ],
          [
            120.6009324,
            31.3211374,
            20.0
          ],
          [
            120.6009082,
            31.3210798,
            21.0
          ],
          [
            120.600905,
            31.320969,
            19.0
          ],
          [
            120.6009164,
            31.320852,
            19.0
          ],
          [
            120.6009512,
            31.3207481,
            19.0
          ],
          [
            120.600966,
            31.3206397,
            20.0
          ],
          [
            120.6009393,
            31.3205473,
            22.0
          ],
          [
            120.600947,
            31.3204479,
            21.0
          ],
          [
            120.6010222,
            31.3203665,
            20.0
          ],
          [
            120.6010648,
            31.3202757,
            17.0
          ],
          [
            120.6011029,
            31.3201702,
            18.0
          ],
          [
            120.60111,
            31.3200603,
            20.0
          ],
          [
            120.601133,
            31.3199609,
            20.0
          ],
          [
            120.6011286,
            31.3198577,
            19.0
          ],
          [
            120.6011172,
            31.3197622,
            20.0
          ],
          [
            120.6011341,
            31.3196619,
            21.0
          ],
          [
            120.6010809,
            31.3195763,
            21.0
          ],
          [
            120.6009835,
            31.3195196,
            21.0
          ],
          [
            120.6008781,
            31.3194775,
            19.0
          ],
          [
            120.6008449,
            31.319455,
            18.0
          ],
          [
            120.6008991,
            31.3193925,
            17.0
          ],
          [
            120.6009738,
            31.3193024,
            17.0
          ],
          [
            120.6010234,
            31.3192031,
            18.0
          ],
          [
            120.6010868,
            31.3191088,
            17.0
          ],
          [
            120.6011356,
            31.3190208,
            19.0
          ],
          [
            120.6011521,
            31.3189153,
            21.0
          ],
          [
            120.601149,
            31.3188155,
            22.0
          ],
          [
            120.6011279,
            31.3187137,
            22.0
          ],
          [
            120.6011009,
            31.3186058,
            21.0
          ],
          [
            120.6010608,
            31.3184941,
            21.0
          ],
          [
            120.6010123,
            31.3183928,
            21.0
          ],
          [
            120.6010024,
            31.3182906,
            22.0
          ],
          [
            120.6009642,
            31.3181981,
            21.0
          ],
          [
            120.6008986,
            31.3181041,
            20.0
          ],
          [
            120.6008365,
            31.3180235,
            20.0
          ],
          [
            120.6007762,
            31.3179362,
            20.0
          ],
          [
            120.6007422,
            31.3178431,
            21.0
          ],
          [
            120.6007241,
            31.3177453,
            21.0
          ],
          [
            120.6007049,
            31.3176435,
            21.0
          ],
          [
            120.600729,
            31.3175364,
            21.0
          ],
          [
            120.600751,
            31.3174388,
            22.0
          ],
          [
            120.6007749,
            31.3173953,
            23.0
          ],
          [
            120.6008042,
            31.3173202,
            22.0
          ],
          [
            120.6008607,
            31.3172352,
            20.0
          ],
          [
            120.6009767,
            31.3172358,
            18.0
          ],
          [
            120.6010627,
            31.317301,
            17.0
          ],
          [
            120.6011858,
            31.3173342,
            18.0
          ],
          [
            120.601317,
            31.3173687,
            21.0
          ],
          [
            120.6014457,
            31.3173937,
            21.0
          ],
          [
            120.6014859,
            31.3174778,
            19.0
          ],
          [
            120.6014713,
            31.3175816,
            20.0
          ],
          [
            120.6014468,
            31.3176851,
            20.0
          ],
          [
            120.6014228,
            31.3177879,
            20.0
          ],
          [
            120.6014024,
            31.3178836,
            20.0
          ],
          [
            120.6014476,
            31.3179643,
            20.0
          ],
          [
            120.6014962,
            31.3180563,
            23.0
          ],
          [
            120.6015226,
            31.3180897,
            24.0
          ],
          [
            120.6015977,
            31.3180547,
            24.0
          ],
          [
            120.6016141,
            31.3179609,
            19.0
          ],
          [
            120.6015858,
            31.317857,
            14.0
          ],
          [
            120.6015535,
            31.3177569,
            11.0
          ],
          [
            120.6014917,
            31.317683,
            10.0
          ],
          [
            120.6013748,
            31.31764,
            11.0
          ],
          [
            120.6012925,
            31.3176949,
            14.0
          ],
          [
            120.601277,
            31.317799,
            18.0
          ],
          [
            120.6013243,
            31.317912,
            18.0
          ],
          [
            120.6013955,
            31.3180072,
            19.0
          ],
          [
            120.6014009,
            31.3179545,
            20.0
          ],
          [
            120.6013668,
            31.3178555,
            24.0
          ],
          [
            120.6014382,
            31.3177888,
            27.0
          ],
          [
            120.6014413,
            31.3177006,
            29.0
          ],
          [
            120.6014516,
            31.3175944,
            29.0
          ],
          [
            120.6014532,
            31.3174918,
            27.0
          ],
          [
            120.6014701,
            31.3174115,
            27.0
          ],
          [
            120.6015553,
            31.3173753,
            25.0
          ]
        ]
      }
    }
  ]
}