{
  "type": "FeatureCollection",
  "features": [
    {
      "type": "Feature",
      "properties": {},
      "geometry": {
        "type": "LineString",
        "coordinates": [
          [
            120.6044736,
            31.3193621,
            16.0
          ],
          [
            120.6044281,
            31.3194279,
            17.0
          ],
          [
            120.604418,
            31.3195248,
            18.0
          ],
          [
            120.6044136,
            31.3196267,
            20.0
          ],
          [
            120.6045054,
            31.3196527,
            19.0
          ],
          [
            120.6045346,
            31.3196579,
            18.0
          ],
          [
            120.6044536,
            31.3196535,
            15.0
          ],
          [
            120.6043927,
            31.3197202,
            16.0
          ],
          [
            120.6043771,
            31.319827,
            16.0
          ],
          [
            120.6043628,
            31.3199285,
            17.0
          ],
          [
            120.6043489,
            31.3200264,
            16.0
          ],
          [
            120.6043406,
            31.3199813,
            16.0
          ],
          [
            120.6043547,
            31.3198815,
            19.0
          ],
          [
            120.6043563,
            31.3197518,
            21.0
          ],
          [
            120.6044003,
            31.3196414,
            22.0
          ],
          [
            120.6044521,
            31.3195432,
            22.0
          ],
          [
            120.6044678,
            31.3194414,
            21.0
          ],
          [
            120.6044891,
            31.3193349,
            22.0
          ],
          [
            120.6043958,
            31.3192967,
            23.0
          ],
          [
            120.6043302,
            31.3192849,
            20.0
          ],
          [
            120.6043928,
            31.3192916,
            18.0
          ],
          [
            120.6044356,
            31.319216,
            16.0
          ],
          [
            120.6044653,
            31.3191194,
            15.0
          ],
          [
            120.604563,
            31.3190876,
            15.0
          ],
          [
            120.6046739,
            31.3190716,
            14.0
          ],
          [
            120.6046672,
            31.3190103,
            14.0
          ],
          [
            120.6046942,
            31.3189099,
            16.0
          ],
          [
            120.6047435,
            31.3188043,
            17.0
          ],
          [
            120.6047886,
            31.3186968,
            19.0
          ],
          [
            120.6048241,
            31.3185943,
            20.0
          ],
          [
            120.6048293,
            31.3184913,
            21.0
          ],
          [
            120.6048423,
            31.318393,
            22.0
          ],
          [
            120.6047774,
            31.3183188,
            22.0
          ],
          [
            120.6046573,
            31.3183143,
            21.0
          ],
          [
            120.6045334,
            31.3183284,
            21.0
          ],
          [
            120.6044175,
            31.3183548,
            21.0
          ]
        ]
      }
    }
  ]
}