{
  "type": "FeatureCollection",
  "features": [
    {
      "type": "Feature",
      "properties": {},
      "geometry": {
        "type": "LineString",
        "coordinates": [
          [
            120.603551,
            31.3198439,
            14.0
          ],
          [
            120.6036381,
            31.3197819,
            15.0
          ],
          [
            120.6036586,
            31.3196897,
            15.0
          ],
          [
            120.6036654,
            31.3195921,
            16.0
          ],
          [
            120.6036685,
            31.3194814,
            17.0
          ],
          [
            120.6036716,
            31.3193793,
            18.0
          ],
          [
            120.6036619,
            31.319332,
            19.0
          ],
          [
            120.6036441,
            31.3192545,
            20.0
          ],
          [
            120.6036897,
            31.3191947,
            22.0
          ],
          [
            120.6038074,
            31.3191984,
            20.0
          ],
          [
            120.6039409,
            31.3192214,
            18.0
          ],
          [
            120.6040675,
            31.3192516,
            17.0
          ],
          [
            120.6041042,
            31.3192667,
            16.0
          ],
          [
            120.6040943,
            31.3191997,
            15.0
          ],
          [
            120.6041122,
            31.3190993,
            17.0
          ],
          [
            120.6041222,
            31.3189869,
            18.0
          ],
          [
            120.604071,
            31.3189561,
            19.0
          ],
          [
            120.6039741,
            31.3189253,
            18.0
          ],
          [
            120.6039249,
            31.3189219,
            17.0
          ],
          [
            120.6038225,
            31.3189103,
            16.0
          ],
          [
            120.6037094,
            31.3188806,
            16.0
          ],
          [
            120.6036389,
            31.3188808,
            16.0
          ],
          [
            120.6035441,
            31.3188704,
            15.0
          ],
          [
            120.6035514,
            31.3187945,
            14.0
          ],
          [
            120.6035955,
            31.3187555,
            13.0
          ],
          [
            120.6035961,
            31.3188208,
            14.0
          ],
          [
            120.6036888,
            31.3188634,
            13.0
          ],
          [
            120.6038142,
            31.3189069,
            12.0
          ],
          [
            120.6039512,
            31.3189474,
            12.0
          ],
          [
            120.6040689,
            31.3189763,
            12.0
          ],
          [
            120.6041517,
            31.31905,
            12.0
          ],
          [
            120.60415,
            31.3191553,
            12.0
          ]
        ]
      }
    }
  ]
}