{
  "type": "FeatureCollection",
  "features": [
    {
      "type": "Feature",
      "properties": {},
      "geometry": {
        "type": "LineString",
        "coordinates": [
          [
            120.60415,
            31.3191553,
            12.0
          ],
          [
            120.6041012,
            31.3192622,
            13.0
          ],
          [
            120.603989,
            31.3192674,
            14.0
          ],
          [
            120.6038676,
            31.3192538,
            14.0
          ],
          [
            120.6037292,
            31.3192313,
            15.0
          ],
          [
            120.6036154,
            31.3191877,
            15.0
          ],
          [
            120.603535,
            31.3191838,
            14.0
          ],
          [
            120.6034221,
            31.3191838,
            13.0
          ],
          [
            120.6033013,
            31.3191687,
            14.0
          ],
          [
            120.6031855,
            31.3191349,
            13.0
          ],
          [
            120.6030905,
            31.3191807,
            12.0
          ]
        ]
      }
    }
  ]
}