{
  "type": "FeatureCollection",
  "features": [
    {
      "type": "Feature",
      "properties": {},
      "geometry": {
        "type": "LineString",
        "coordinates": [
          [
            120.6032234,
            31.3180377,
            22.0
          ],
          [
            120.6032029,
            31.3181518,
            21.0
          ],
          [
            120.6031357,
            31.3182241,
            21.0
          ],
          [
            120.6030317,
            31.318219,
            20.0
          ],
          [
            120.6029189,
            31.3181958,
            17.0
          ],
          [
            120.6028126,
            31.318215,
            15.0
          ],
          [
            120.6027964,
            31.3182993,
            15.0
          ],
          [
            120.6028033,
            31.3184075,
            17.0
          ],
          [
            120.6028071,
            31.3185111,
            19.0
          ],
          [
            120.6028035,
            31.3186109,
            18.0
          ],
          [
            120.6028151,
            31.3185632,
            20.0
          ],
          [
            120.6027354,
            31.3185033,
            21.0
          ],
          [
            120.6026143,
            31.3184628,
            20.0
          ],
          [
            120.6025144,
            31.3184949,
            18.0
          ],
          [
            120.602472,
            31.318583,
            18.0
          ],
          [
            120.6023778,
            31.3186363,
            19.0
          ],
          [
            120.6022708,
            31.3186755,
            19.0
          ]
        ]
      }
    }
  ]
}