{
  "type": "FeatureCollection",
  "features": [
    {
      "type": "Feature",
      "properties": {},
      "geometry": {
        "type": "LineString",
        "coordinates": [
          [
            120.6022708,
            31.3186755,
            19.0
          ],
          [
            120.6022219,
            31.3187624,
            18.0
          ],
          [
            120.6022459,
            31.3188527,
            16.0
          ],
          [
            120.6021868,
            31.318922,
            16.0
          ],
          [
            120.6021131,
            31.3189908,
            14.0
          ],
          [
            120.6020366,
            31.3190679,
            13.0
          ],
          [
            120.6020054,
            31.3191603,
            13.0
          ],
          [
            120.6019824,
            31.3192027,
            13.0
          ],
          [
            120.6019868,
            31.3192868,
            13.0
          ],
          [
            120.6019936,
            31.3193837,
            13.0
          ],
          [
            120.6019973,
            31.3194809,
            13.0
          ],
          [
            120.6019615,
            31.3195876,
            15.0
          ],
          [
            120.6019215,
            31.319687,
            16.0
          ],
          [
            120.6018364,
            31.319742,
            16.0
          ],
          [
            120.6018025,
            31.3198201,
            15.0
          ],
          [
            120.6018075,
            31.319922,
            16.0
          ],
          [
            120.6018024,
            31.319931,
            15.0
          ],
          [
            120.6017933,
            31.3199985,
            16.0
          ],
          [
            120.601829,
            31.3200552,
            16.0
          ],
          [
            120.6018537,
            31.3201398,
            15.0
          ],
          [
            120.6019532,
            31.3201596,
            14.0
          ],
          [
            120.6020678,
            31.3201852,
            14.0
          ],
          [
            120.6022051,
            31.3202169,
            14.0
          ],
          [
            120.6023259,
            31.3202125,
            14.0
          ],
          [
            120.6024243,
            31.3201635,
            12.0
          ],
          [
            120.6024819,
            31.3200635,
            12.0
          ],
          [
            120.6024524,
            31.3199842,
            14.0
          ],
          [
            120.6025043,
            31.3199916,
            13.0
          ],
          [
            120.6025479,
            31.3200692,
            13.0
          ],
          [
            120.602598,
            31.3201778,
            15.0
          ],
          [
            120.6026314,
            31.3202902,
            14.0
          ],
          [
            120.6026953,
            31.3203606,
            14.0
          ],
          [
            120.6026255,
            31.3203419,
            16.0
          ],
          [
            120.6025822,
            31.3202514,
            19.0
          ],
          [
            120.6025113,
            31.3201522,
            19.0
          ],
          [
            120.6024565,
            31.320056,
            18.0
          ],
          [
            120.6023751,
            31.319974,
            17.0
          ],
          [
            120.6022615,
            31.3199241,
            17.0
          ],
          [
            120.6022257,
            31.3198895,
            17.0
          ],
          [
            120.6022294,
            31.3198118,
            17.0
          ],
          [
            120.6021789,
            31.3197421,
            18.0
          ],
          [
            120.6020669,
            31.3197196,
            20.0
          ],
          [
            120.6019839,
            31.3196553,
            19.0
          ],
          [
            120.6020533,
            31.3196322,
            21.0
          ],
          [
            120.6021687,
            31.3196359,
            19.0
          ],
          [
            120.6022808,
            31.31968,
            20.0
          ],
          [
            120.602361,
            31.3196348,
            20.0
          ],
          [
            120.6023443,
            31.3195562,
            19.0
          ],
          [
            120.6022522,
            31.3195071,
            17.0
          ],
          [
            120.6023095,
            31.3194491,
            16.0
          ],
          [
            120.602349,
            31.319355,
            15.0
          ],
          [
            120.60235,
            31.3192463,
            15.0
          ],
          [
            120.6023455,
            31.3191355,
            14.0
          ],
          [
            120.6022565,
            31.3190677,
            14.0
          ],
          [
            120.6021441,
            31.3190246,
            14.0
          ],
          [
            120.6021675,
            31.3189672,
            13.0
          ],
          [
            120.6020894,
            31.3189781,
            14.0
          ],
          [
            120.6020351,
            31.3190648,
            12.0
          ],
          [
            120.6020553,
            31.3191609,
            12.0
          ],
          [
            120.6021693,
            31.3191994,
            12.0
          ],
          [
            120.6021116,
            31.3191998,
            12.0
          ],
          [
            120.6020502,
            31.3191286,
            13.0
          ],
          [
            120.6020436,
            31.3190329,
            13.0
          ],
          [
            120.6020955,
            31.3189362,
            12.0
          ],
          [
            120.6022077,
            31.3188882,
            14.0
          ],
          [
            120.6023024,
            31.3188105,
            15.0
          ],
          [
            120.6024175,
            31.3187884,
            15.0
          ],
          [
            120.6025277,
            31.3188037,
            15.0
          ],
          [
            120.6026427,
            31.3188321,
            14.0
          ],
          [
            120.602707,
            31.3189113,
            13.0
          ],
          [
            120.6027989,
            31.3189468,
            12.0
          ],
          [
            120.6029112,
            31.3189768,
            14.0
          ],
          [
            120.6028532,
            31.3189624,
            14.0
          ],
          [
            120.6027237,
            31.3189395,
            14.0
          ],
          [
            120.6025894,
            31.3188842,
            16.0
          ],
          [
            120.602456,
            31.3188596,
            16.0
          ],
          [
            120.6023315,
            31.3188352,
            16.0
          ],
          [
            120.6022368,
            31.3187781,
            16.0
          ],
          [
            120.6021937,
            31.318689,
            15.0
          ],
          [
            120.6021823,
            31.318594,
            16.0
          ],
          [
            120.6022008,
            31.3184905,
            18.0
          ],
          [
            120.6022101,
            31.3184066,
            18.0
          ],
          [
            120.6022144,
            31.3183023,
            19.0
          ],
          [
            120.6022299,
            31.3181905,
            20.0
          ],
          [
            120.6022696,
            31.3181146,
            21.0
          ]
        ]
      }
    }
  ]
}