{
  "type": "FeatureCollection",
  "features": [
    {
      "type": "Feature",
      "properties": {},
      "geometry": {
        "type": "LineString",
        "coordinates": [
          [
            120.6015553,
            31.3173753,
            25.0
          ],
          [
            120.6016247,
            31.3173766,
            22.0
          ],
          [
            120.6015641,
            31.3173992,
            20.0
          ],
          [
            120.6016444,
            31.3174195,
            19.0
          ],
          [
            120.6017651,
            31.3174207,
            18.0
          ],
          [
            120.6018761,
            31.3174307,
            17.0
          ],
          [
            120.6019799,
            31.3174561,
            18.0
          ],
          [
            120.6021006,
            31.3174703,
            19.0
          ],
          [
            120.6022357,
            31.3174642,
            19.0
          ],
          [
            120.6023606,
            31.3174626,
            16.0
          ],
          [
            120.6024259,
            31.317523,
            15.0
          ],
          [
            120.6024305,
            31.3176167,
            16.0
          ],
          [
            120.6023949,
            31.3177227,
            18.0
          ],
          [
            120.6023413,
            31.3178073,
            20.0
          ],
          [
            120.6023268,
            31.3178975,
            20.0
          ],
          [
            120.6023097,
            31.3179696,
            19.0
          ],
          [
            120.6023086,
            31.3180631,
            20.0
          ],
          [
            120.6023071,
            31.318156,
            19.0
          ],
          [
            120.6022905,
            31.3182611,
            19.0
          ],
          [
            120.6022751,
            31.3183635,
            22.0
          ],
          [
            120.6022569,
            31.3184708,
            25.0
          ],
          [
            120.6022451,
            31.3185772,
            26.0
          ],
          [
            120.6022545,
            31.3186646,
            26.0
          ],
          [
            120.6021717,
            31.3186913,
            24.0
          ],
          [
            120.6020749,
            31.3186514,
            17.0
          ],
          [
            120.6020093,
            31.3185688,
            13.0
          ],
          [
            120.6019838,
            31.3184548,
            10.0
          ],
          [
            120.6020163,
            31.3183443,
            7.0
          ],
          [
            120.6020019,
            31.3182397,
            9.0
          ],
          [
            120.6019185,
            31.3181726,
            11.0
          ],
          [
            120.6018286,
            31.3180911,
            13.0
          ],
          [
            120.6017173,
            31.3180717,
            14.0
          ],
          [
            120.6016632,
            31.3181477,
            16.0
          ],
          [
            120.6016487,
            31.3182595,
            16.0
          ],
          [
            120.6016509,
            31.318387,
            18.0
          ],
          [
            120.6016635,
            31.3185059,
            22.0
          ],
          [
            120.6016617,
            31.3186148,
            24.0
          ],
          [
            120.6016589,
            31.3187162,
            25.0
          ],
          [
            120.6016468,
            31.3188097,
            23.0
          ],
          [
            120.6016339,
            31.3189023,
            22.0
          ],
          [
            120.6016548,
            31.3190042,
            20.0
          ],
          [
            120.6016745,
            31.3191104,
            19.0
          ],
          [
            120.6016669,
            31.3192084,
            18.0
          ],
          [
            120.6016538,
            31.3192995,
            18.0
          ],
          [
            120.6016378,
            31.3194026,
            19.0
          ],
          [
            120.6016222,
            31.3195026,
            21.0
          ],
          [
            120.6015932,
            31.3195966,
            21.0
          ],
          [
            120.6015661,
            31.31969,
            22.0
          ],
          [
            120.6015367,
            31.3197831,
            24.0
          ],
          [
            120.6015241,
            31.3198858,
            26.0
          ],
          [
            120.6015882,
            31.3199546,
            27.0
          ],
          [
            120.6015696,
            31.3200416,
            26.0
          ],
          [
            120.6015318,
            31.3201386,
            24.0
          ],
          [
            120.6014926,
            31.3202319,
            21.0
          ],
          [
            120.6014671,
            31.3203348,
            20.0
          ],
          [
            120.6014437,
            31.3204314,
            19.0
          ],
          [
            120.601419,
            31.3205216,
            18.0
          ]
        ]
      }
    }
  ]
}