{
  "type": "FeatureCollection",
  "features": [
    {
      "type": "Feature",
      "properties": {},
      "geometry": {
        "type": "LineString",
        "coordinates": [
          [
            120.6057378,
            31.3210456,
            11.0
          ],
          [
            120.605778,
            31.3209741,
            13.0
          ],
          [
            120.6057437,
            31.3209316,
            17.0
          ],
          [
            120.6057763,
            31.3208534,
            19.0
          ],
          [
            120.6058316,
            31.3207562,
            21.0
          ],
          [
            120.6058682,
            31.3206458,
            22.0
          ],
          [
            120.6058716,
            31.3205442,
            24.0
          ],
          [
            120.6058514,
            31.3204406,
            25.0
          ],
          [
            120.6058646,
            31.3203467,
            26.0
          ],
          [
            120.6058983,
            31.3202425,
            26.0
          ],
          [
            120.6059258,
            31.3201405,
            27.0
          ],
          [
            120.6059542,
            31.320037,
            28.0
          ],
          [
            120.6059477,
            31.319961,
            29.0
          ],
          [
            120.6059643,
            31.3198741,
            29.0
          ],
          [
            120.6059769,
            31.3197673,
            29.0
          ],
          [
            120.606002,
            31.3196721,
            29.0
          ],
          [
            120.60602,
            31.3195765,
            30.0
          ],
          [
            120.6060337,
            31.3194824,
            29.0
          ],
          [
            120.6060408,
            31.3193711,
            28.0
          ],
          [
            120.6060736,
            31.3192661,
            28.0
          ],
          [
            120.6061065,
            31.3191735,
            28.0
          ],
          [
            120.6061091,
            31.3190738,
            29.0
          ],
          [
            120.6061096,
            31.3189775,
            29.0
          ],
          [
            120.6061287,
            31.3188709,
            29.0
          ],
          [
            120.606139,
            31.3187689,
            27.0
          ],
          [
            120.6061432,
            31.3186683,
            26.0
          ],
          [
            120.6061583,
            31.3185694,
            26.0
          ],
          [
            120.6061785,
            31.3184773,
            26.0
          ],
          [
            120.6062001,
            31.3183703,
            25.0
          ],
          [
            120.6062202,
            31.3182672,
            22.0
          ],
          [
            120.6061944,
            31.3182381,
            21.0
          ],
          [
            120.6062148,
            31.3181746,
            20.0
          ],
          [
            120.6062491,
            31.318087,
            19.0
          ],
          [
            120.6061837,
            31.3180399,
            19.0
          ]
        ]
      }
    }
  ]
}