{
  "type": "FeatureCollection",
  "features": [
    {
      "type": "Feature",
      "properties": {},
      "geometry": {
        "type": "LineString",
        "coordinates": [
          [
            120.6061837,
            31.3180399,
            19.0
          ],
          [
            120.6060767,
            31.3180181,
            19.0
          ],
          [
            120.605958,
            31.317993,
            18.0
          ],
          [
            120.6058388,
            31.31796,
            18.0
          ],
          [
            120.60572,
            31.317931,
            19.0
          ],
          [
            120.6056029,
            31.3179137,
            19.0
          ],
          [
            120.6054856,
            31.3178927,
            17.0
          ],
          [
            120.6053643,
            31.3178667,
            17.0
          ],
          [
            120.605245,
            31.3178687,
            17.0
          ],
          [
            120.6051314,
            31.3178571,
            16.0
          ],
          [
            120.6050177,
            31.317834,
            16.0
          ],
          [
            120.6048985,
            31.317829,
            18.0
          ],
          [
            120.6047777,
            31.3177999,
            19.0
          ],
          [
            120.6046543,
            31.317787,
            18.0
          ],
          [
            120.6045325,
            31.3177699,
            17.0
          ],
          [
            120.6044025,
            31.3177553,
            16.0
          ],
          [
            120.6042727,
            31.3177481,
            17.0
          ],
          [
            120.6041433,
            31.3177411,
            17.0
          ],
          [
            120.6040182,
            31.3177253,
            15.0
          ],
          [
            120.6038957,
            31.3177126,
            16.0
          ],
          [
            120.6037763,
            31.3176977,
            17.0
          ],
          [
            120.6036549,
            31.3176794,
            19.0
          ],
          [
            120.6035309,
            31.3176608,
            20.0
          ],
          [
            120.6034069,
            31.3176464,
            19.0
          ],
          [
            120.6032925,
            31.3176277,
            18.0
          ],
          [
            120.6031732,
            31.3176107,
            19.0
          ],
          [
            120.6030537,
            31.3175919,
            19.0
          ],
          [
            120.6029329,
            31.3175777,
            19.0
          ],
          [
            120.6028096,
            31.3175585,
            19.0
          ],
          [
            120.6026925,
            31.3175493,
            18.0
          ],
          [
            120.6025794,
            31.3175416,
            18.0
          ],
          [
            120.6024645,
            31.3175241,
            18.0
          ],
          [
            120.6023868,
            31.3175793,
            18.0
          ],
          [
            120.6023529,
            31.3176773,
            17.0
          ],
          [
            120.6023416,
            31.3177865,
            17.0
          ],
          [
            120.6023299,
            31.3178947,
            16.0
          ],
          [
            120.6023061,
            31.3180036,
            18.0
          ],
          [
            120.602309,
            31.3181075,
            19.0
          ],
          [
            120.6023091,
            31.3181508,
            20.0
          ]
        ]
      }
    }
  ]
}