{
  "type": "FeatureCollection",
  "features": [
    {
      "type": "Feature",
      "properties": {},
      "geometry": {
        "type": "LineString",
        "coordinates": [
          [
            120.6023091,
            31.3181508,
            20.0
          ],
          [
            120.6023897,
            31.3181976,
            21.0
          ],
          [
            120.6025111,
            31.3181941,
            20.0
          ],
          [
            120.6026328,
            31.318178,
            20.0
          ],
          [
            120.6027097,
            31.3181337,
            18.0
          ],
          [
            120.6027412,
            31.3180499,
            18.0
          ],
          [
            120.6027624,
            31.3180972,
            21.0
          ],
          [
            120.6028545,
            31.3181479,
            23.0
          ],
          [
            120.6029711,
            31.3181871,
            21.0
          ],
          [
            120.6031012,
            31.3182068,
            18.0
          ],
          [
            120.6032252,
            31.3182204,
            15.0
          ],
          [
            120.6033524,
            31.3182323,
            14.0
          ],
          [
            120.6034652,
            31.3182481,
            12.0
          ],
          [
            120.6035793,
            31.3182522,
            11.0
          ],
          [
            120.6036883,
            31.3182628,
            11.0
          ],
          [
            120.6038065,
            31.3182693,
            11.0
          ],
          [
            120.6039206,
            31.3182803,
            11.0
          ],
          [
            120.6040183,
            31.318259,
            12.0
          ],
          [
            120.6041297,
            31.3182709,
            13.0
          ],
          [
            120.604248,
            31.318299,
            14.0
          ],
          [
            120.6043743,
            31.3183283,
            14.0
          ],
          [
            120.6044573,
            31.3183564,
            13.0
          ],
          [
            120.6045569,
            31.3183807,
            14.0
          ],
          [
            120.604661,
            31.3183768,
            15.0
          ],
          [
            120.6047703,
            31.3183608,
            14.0
          ],
          [
            120.6048864,
            31.3183337,
            13.0
          ],
          [
            120.6050049,
            31.3183304,
            14.0
          ],
          [
            120.6051284,
            31.318336,
            14.0
          ],
          [
            120.6052451,
            31.3183153,
            15.0
          ],
          [
            120.605293,
            31.3183228,
            18.0
          ],
          [
            120.6053802,
            31.3183574,
            19.0
          ],
          [
            120.6054815,
            31.3183725,
            19.0
          ],
          [
            120.6055577,
            31.3183066,
            19.0
          ],
          [
            120.605662,
            31.3182833,
            21.0
          ],
          [
            120.60578,
            31.3182909,
            19.0
          ],
          [
            120.6058974,
            31.3183012,
            17.0
          ],
          [
            120.6060084,
            31.3183141,
            16.0
          ],
          [
            120.6061137,
            31.3183356,
            16.0
          ],
          [
            120.6061724,
            31.3184162,
            16.0
          ]
        ]
      }
    }
  ]
}