{
  "type": "FeatureCollection",
  "features": [
    {
      "type": "Feature",
      "properties": {},
      "geometry": {
        "type": "LineString",
        "coordinates": [
          [
            120.6061724,
            31.3184162,
            16.0
          ],
          [
            120.6060924,
            31.3184404,
            17.0
          ],
          [
            120.605971,
            31.3184328,
            17.0
          ],
          [
            120.6058209,
            31.3184105,
            17.0
          ],
          [
            120.6056806,
            31.3183909,
            18.0
          ],
          [
            120.6055477,
            31.3183732,
            17.0
          ],
          [
            120.6054638,
            31.3184351,
            17.0
          ],
          [
            120.6054456,
            31.3185334,
            19.0
          ],
          [
            120.6054336,
            31.3186512,
            20.0
          ],
          [
            120.605427,
            31.3187555,
            22.0
          ],
          [
            120.6054209,
            31.3188554,
            25.0
          ],
          [
            120.6054099,
            31.3189632,
            27.0
          ],
          [
            120.605374,
            31.3190681,
            28.0
          ],
          [
            120.6053336,
            31.3191645,
            30.0
          ],
          [
            120.6053216,
            31.3191975,
            28.0
          ],
          [
            120.6052995,
            31.3192669,
            26.0
          ],
          [
            120.6052912,
            31.319307,
            25.0
          ],
          [
            120.6052588,
            31.3193854,
            25.0
          ],
          [
            120.6051834,
            31.3194686,
            24.0
          ],
          [
            120.6051513,
            31.3195772,
            24.0
          ],
          [
            120.6051462,
            31.3196413,
            25.0
          ],
          [
            120.6051216,
            31.3197192,
            24.0
          ],
          [
            120.6051172,
            31.3198219,
            23.0
          ],
          [
            120.6050853,
            31.3199143,
            24.0
          ],
          [
            120.6050989,
            31.3199624,
            27.0
          ],
          [
            120.6050367,
            31.3200279,
            31.0
          ],
          [
            120.605024,
            31.3201356,
            29.0
          ],
          [
            120.6050303,
            31.3202484,
            27.0
          ],
          [
            120.6050069,
            31.3203487,
            26.0
          ],
          [
            120.6049766,
            31.3204501,
            26.0
          ],
          [
            120.6049379,
            31.3205418,
            24.0
          ],
          [
            120.6049069,
            31.3206357,
            22.0
          ],
          [
            120.60485,
            31.320725,
            21.0
          ],
          [
            120.604826,
            31.3208271,
            22.0
          ],
          [
            120.6048404,
            31.3209243,
            20.0
          ],
          [
            120.6047824,
            31.320904,
            18.0
          ],
          [
            120.604679,
            31.3208701,
            19.0
          ],
          [
            120.604557,
            31.3208476,
            19.0
          ],
          [
            120.6044386,
            31.3208164,
            19.0
          ],
          [
            120.6044917,
            31.3208076,
            18.0
          ],
          [
            120.604603,
            31.3208127,
            18.0
          ],
          [
            120.6047363,
            31.3208488,
            18.0
          ],
          [
            120.6048361,
            31.3208035,
            19.0
          ],
          [
            120.6048953,
            31.320708,
            18.0
          ],
          [
            120.6049351,
            31.3205944,
            19.0
          ],
          [
            120.6049958,
            31.3204981,
            20.0
          ]
        ]
      }
    }
  ]
}