{
  "type": "FeatureCollection",
  "features": [
    {
      "type": "Feature",
      "properties": {},
      "geometry": {
        "type": "LineString",
        "coordinates": [
          [
            120.6049958,
            31.3204981,
            20.0
          ],
          [
            120.605102,
            31.3204862,
            21.0
          ],
          [
            120.6052134,
            31.3204676,
            20.0
          ],
          [
            120.6053254,
            31.3204928,
            19.0
          ],
          [
            120.6054359,
            31.3204981,
            17.0
          ],
          [
            120.6054775,
            31.320414,
            17.0
          ],
          [
            120.6054886,
            31.3203059,
            17.0
          ],
          [
            120.6054489,
            31.320334,
            17.0
          ],
          [
            120.6054293,
            31.3204304,
            17.0
          ],
          [
            120.6054846,
            31.3205223,
            16.0
          ],
          [
            120.6056015,
            31.3205393,
            15.0
          ],
          [
            120.6057218,
            31.3205329,
            14.0
          ],
          [
            120.6058419,
            31.3205173,
            14.0
          ],
          [
            120.6057995,
            31.320534,
            14.0
          ],
          [
            120.6056821,
            31.3205254,
            14.0
          ],
          [
            120.6055451,
            31.3205168,
            15.0
          ],
          [
            120.6054191,
            31.3205206,
            15.0
          ],
          [
            120.6053055,
            31.32054,
            15.0
          ],
          [
            120.6051878,
            31.3205292,
            15.0
          ],
          [
            120.6050692,
            31.3205088,
            14.0
          ],
          [
            120.6049648,
            31.3204716,
            14.0
          ],
          [
            120.6048545,
            31.3204472,
            15.0
          ],
          [
            120.6048059,
            31.320439,
            15.0
          ],
          [
            120.6047132,
            31.3204138,
            14.0
          ],
          [
            120.6047805,
            31.3204213,
            14.0
          ],
          [
            120.6049163,
            31.3204571,
            14.0
          ],
          [
            120.6049435,
            31.3205397,
            13.0
          ],
          [
            120.6048824,
            31.3206074,
            15.0
          ]
        ]
      }
    }
  ]
}