{
  "type": "FeatureCollection",
  "features": [
    {
      "type": "Feature",
      "properties": {},
      "geometry": {
        "type": "LineString",
        "coordinates": [
          [
            120.6048824,
            31.3206074,
            15.0
          ],
          [
            120.6047814,
            31.3205903,
            16.0
          ],
          [
            120.6046637,
            31.3205762,
            15.0
          ],
          [
            120.6045336,
            31.3205561,
            14.0
          ],
          [
            120.6044099,
            31.320543,
            14.0
          ],
          [
            120.604288,
            31.3205358,
            13.0
          ],
          [
            120.6041647,
            31.3205354,
            14.0
          ],
          [
            120.6041192,
            31.3205378,
            13.0
          ],
          [
            120.6041613,
            31.3204769,
            10.0
          ],
          [
            120.6042536,
            31.3205253,
            11.0
          ],
          [
            120.6043802,
            31.3205276,
            10.0
          ],
          [
            120.6044823,
            31.3204799,
            11.0
          ],
          [
            120.6044934,
            31.320421,
            11.0
          ],
          [
            120.6044681,
            31.3203214,
            14.0
          ],
          [
            120.6043674,
            31.3202687,
            15.0
          ],
          [
            120.6043402,
            31.3201771,
            17.0
          ],
          [
            120.6043106,
            31.3200817,
            19.0
          ],
          [
            120.6043178,
            31.3200003,
            20.0
          ],
          [
            120.6044044,
            31.3199975,
            20.0
          ],
          [
            120.6045278,
            31.320009,
            18.0
          ],
          [
            120.6046583,
            31.3200201,
            18.0
          ],
          [
            120.6047859,
            31.3200063,
            17.0
          ],
          [
            120.6048425,
            31.319927,
            17.0
          ],
          [
            120.6048568,
            31.3199077,
            16.0
          ],
          [
            120.6049369,
            31.3198833,
            16.0
          ],
          [
            120.6050236,
            31.3199184,
            14.0
          ],
          [
            120.605094,
            31.3198738,
            12.0
          ],
          [
            120.6051251,
            31.3197837,
            13.0
          ],
          [
            120.6051514,
            31.3196687,
            14.0
          ],
          [
            120.605159,
            31.3195639,
            16.0
          ],
          [
            120.6051711,
            31.3194552,
            18.0
          ],
          [
            120.6051499,
            31.3193982,
            20.0
          ],
          [
            120.6050616,
            31.3193772,
            21.0
          ],
          [
            120.6049407,
            31.3193647,
            20.0
          ],
          [
            120.6048191,
            31.3193545,
            19.0
          ],
          [
            120.6046905,
            31.3193528,
            17.0
          ],
          [
            120.604644,
            31.3193593,
            16.0
          ],
          [
            120.6046567,
            31.3194308,
            15.0
          ],
          [
            120.6046566,
            31.3193876,
            16.0
          ],
          [
            120.6045767,
            31.3193826,
            16.0
          ],
          [
            120.6044736,
            31.3193621,
            16.0
          ]
        ]
      }
    }
  ]
}